coordinates	name	address	city	st	zip
37.7899076654947,-122.3884960181	Water Bar	399 The Embarcadero	San Francisco	CA	94105
37.8005753,-122.4001617	Hog Island Oyster Co	1 Ferry Bldg, Shop 11	San Francisco	CA	94111
37.7816887,-122.3879089	SB40	Pier 40	San Francisco	CA	94107
37.7994385,-122.3972702	Waterfront Restaurant	Pier 7	San Francisco	CA	94111
37.7953184,-122.3938738	MarketBar	1 Ferry Building	San Francisco	CA	94111
37.7897544,-122.4058585	E&O Asian Kitchen	314 Sutter St	San Francisco	CA	94108
37.7912119375,-122.4036527917	Plouf	40 Belden Place	San Francisco	CA	94104
37.791566,-122.40379	Brindisi Cucina di Mare	88 Belden Place	San Francisco	CA	94104
37.794153166666,-122.40145366677	Georges	415 Sansome St	San Francisco	CA	94111
37.777753,-122.422996	Boxing Room	399 Grove St	San Francisco	CA	94102
37.763982877551,-122.4656723469	Pas√≠on	737 Irving St.	San Francisco	CA	94122
37.7884077346939,-122.4338445306	Elite Cafe	2049 Fillmore	San Francisco	CA	94115
37.7873093,-122.4334128	Woodhouse Fish Co	1914 Fillmore St	San Francisco	CA	94115
37.797569,-122.432374	Cafe des Amis	2000 Union St	San Francisco	CA	94123
37.7996954897959,-122.4411815306	Reed & Greenough	3251 Scott St	San Francisco	CA	94123
37.7605732244898,-122.4193422245	Mission Street Oyster Bar	2282 Mission St	San Francisco	CA	94110
37.7601192941176,-122.419758	Hog & Rocks	3431 19th St	San Francisco	CA	94110
37.754268,-122.409344	Local's Corner	2500 Bryant St	San Francisco	CA	94110
37.778572,-122.39325	District	216 Townsend St	San Francisco	CA	94107
37.794729276887,-122.41824992017	Hyde Street Seafood House & Raw Bar	1509 Hyde St.	San Francisco	CA	94109
37.799705,-122.4083601	Sotto Mare	552 Green St	San Francisco	CA	94133
37.7426405306122,-122.4868779796	Parkside Tavern	1940 Taraval St	San Francisco	CA	94116
37.784662,-122.400831	B Restaurant & Bar	720 Howard St	San Francisco	CA	94107
37.7878071,-122.3988798	Anchor & Hope	83 Minna St	San Francisco	CA	94105
37.7809256045611,-122.4026971118	Oola Restaurant & Bar	860 Folsom St	San Francisco	CA	94107
37.7686047285832,-122.4022694245	Skool	1725 Alameda St	San Francisco	CA	94103
37.766607,-122.386375	Mission Rock Resort	817 Terry Francois Blvd	San Francisco	CA	94107
37.7883676923077,-122.4203443846	Mayes Oyster House	1233 Polk St	San Francisco	CA	94109
37.788312,-122.408909	Farallon	450 Post St	San Francisco	CA	94102
37.7755509591837,-122.4380187347	Bar Crudo	665 Divisadero St	San Francisco	CA	94117
37.791654,-122.43455	Choquet's	2500 Washington St	San Francisco	CA	94115
37.7662098651625,-122.3862252614	The Ramp	855 Terry Francois St	San Francisco	CA	94107
